GLOBALSTAR M067         
1 32263U 07048A   24352.03757163 -.00000039  00000+0  43245-3 0  9996
2 32263  51.9704 208.9145 0001026  29.0844 118.3797 12.40662831786874
GLOBALSTAR M070         
1 32264U 07048B   24352.67653472 -.00000081  00000+0  12631-3 0  9997
2 32264  51.9767 321.4550 0000620  55.9965 115.1604 12.62307922791729
GLOBALSTAR M066         
1 32265U 07048C   24352.74046876 -.00000082  00000+0  11660-3 0  9992
2 32265  51.9646 193.4820 0001667  77.6424   0.8540 12.42168702793771
GLOBALSTAR M068         
1 32266U 07048D   24352.58650115 -.00000103  00000+0  73364-5 0  9997
2 32266  51.9865 135.8298 0002042 101.5995 339.1125 12.62811548794618
GLOBALSTAR M079         
1 37188U 10054A   24352.13697330 -.00000089  00000+0  81861-4 0  9990
2 37188  52.0056 333.9778 0000044  41.1214  37.6474 12.62268306653469
GLOBALSTAR M074         
1 37189U 10054B   24352.41957608 -.00000097  00000+0  38782-4 0  9992
2 37189  52.0034 332.4664 0000485  41.7519 122.8445 12.62260214654104
GLOBALSTAR M076         
1 37190U 10054C   24352.44761897 -.00000090  00000+0  75578-4 0  9997
2 37190  52.0048 332.5375 0000403   4.0055 166.9765 12.62274771653823
GLOBALSTAR M077         
1 37191U 10054D   24352.59300208 -.00000069  00000+0  19133-3 0  9999
2 37191  52.0080 288.9000 0000655  53.6951 117.7821 12.62268285654217
